GLOBALSTAR M067         
1 32263U 07048A   24188.17541457 -.00000086  00000+0  87767-4 0  9995
2 32263  51.9746 328.3738 0000508  29.7164 141.6137 12.40648578766788
GLOBALSTAR M070         
1 32264U 07048B   24188.21443117 -.00000084  00000+0  11192-3 0  9991
2 32264  51.9749 102.4573 0000934  54.1130 110.1499 12.62295260770954
GLOBALSTAR M066         
1 32265U 07048C   24187.77689458 -.00000080  00000+0  13082-3 0  9998
2 32265  51.9692 325.7545 0000899 138.0805  10.3885 12.62264723772189
GLOBALSTAR M068         
1 32266U 07048D   24187.65201894 -.00000036  00000+0  37678-3 0  9998
2 32266  51.9888 278.5877 0001423 111.2472  37.8558 12.62793217773779
GLOBALSTAR M079         
1 37188U 10054A   24188.24453281 -.00000101  00000+0  16469-4 0  9991
2 37188  52.0036 112.8894 0000365  18.0733 146.1903 12.62271495633447
GLOBALSTAR M074         
1 37189U 10054B   24187.85364219 -.00000116  00000+0 -66592-4 0  9999
2 37189  52.0013 113.4568 0000551  43.8951  22.2594 12.62269893633329
GLOBALSTAR M076         
1 37190U 10054C   24188.21443485 -.00000106  00000+0 -14151-4 0  9998
2 37190  52.0026 112.4970 0000697   5.9070 141.2870 12.62262475633444
GLOBALSTAR M077         
1 37191U 10054D   24187.93407147 -.00000057  00000+0  25938-3 0  9990
2 37191  52.0080  70.1071 0000785  62.8614 309.8315 12.62261115633425
